start=new Date('%Y-%m-57T00:00:00.000Z').valueOf();
sats=[{"DECAY_DATE":null,"LAUNCH_DATE":"2020-01-29","ARG_OF_PERICENTER":"65.7945","BSTAR":"0.00007902800000","OBJECT_NAME":"STARLINK-1186","MEAN_ELEMENT_THEORY":"SGP4","MEAN_MOTION_DOT":"0.00000895","RCS_SIZE":"LARGE","ELEMENT_SET_NO":"999","INCLINATION":"53.0535","NORAD_CAT_ID":"45099","REV_AT_EPOCH":"8664","GP_ID":"183183511","MEAN_MOTION":"15.06392879","TIME_SYSTEM":"UTC","ECCENTRICITY":"0.00018600","CENTER_NAME":"EARTH","CLASSIFICATION_TYPE":"U","REF_FRAME":"TEME","SEMIMAJOR_AXIS":"6925.370","PERIOD":"95.593","RA_OF_ASC_NODE":"144.0382","MEAN_ANOMALY":"294.3238","TLE_LINE2":"2 45099  53.0535 144.0382 0001860  65.7945 294.3238 15.06392879 86648","EPHEMERIS_TYPE":"0","OBJECT_ID":"2020-006BH","FILE":"3100831","APOAPSIS":"548.524","PERIAPSIS":"545.947","COUNTRY_CODE":"US","TLE_LINE1":"1 45099U 20006BH  21233.48712997  .00000895  00000-0  79028-4 0  9995","EPOCH":"2021-08-21T11:41:28.029408","OBJECT_TYPE":"PAYLOAD","SITE":"AFETR","MEAN_MOTION_DDOT":"0.0000000000000"},{"BSTAR":"0.00010373000000","OBJECT_NAME":"STARLINK-1193","MEAN_ELEMENT_THEORY":"SGP4","ARG_OF_PERICENTER":"68.6736","LAUNCH_DATE":"2020-01-29","DECAY_DATE":null,"REV_AT_EPOCH":"8663","ELEMENT_SET_NO":"999","INCLINATION":"53.0532","NORAD_CAT_ID":"45100","MEAN_MOTION_DOT":"0.00001264","RCS_SIZE":"LARGE","PERIOD":"95.592","RA_OF_ASC_NODE":"144.2175","REF_FRAME":"TEME","SEMIMAJOR_AXIS":"6925.343","MEAN_MOTION":"15.06401953","TIME_SYSTEM":"UTC","ECCENTRICITY":"0.00020790","CENTER_NAME":"EARTH","CLASSIFICATION_TYPE":"U","GP_ID":"183184261","SITE":"AFETR","OBJECT_TYPE":"PAYLOAD","MEAN_MOTION_DDOT":"0.0000000000000","COUNTRY_CODE":"US","EPOCH":"2021-08-21T10:48:22.765536","TLE_LINE1":"1 45100U 20006BJ  21233.45026349  .00001264  00000-0  10373-3 0  9992","OBJECT_ID":"2020-006BJ","FILE":"3100831","APOAPSIS":"548.647","PERIAPSIS":"545.768","MEAN_ANOMALY":"291.4474","TLE_LINE2":"2 45100  53.0532 144.2175 0002079  68.6736 291.4474 15.06401953 86636","EPHEMERIS_TYPE":"0"},{"REF_FRAME":"TEME","SEMIMAJOR_AXIS":"6925.373","RA_OF_ASC_NODE":"144.2268","PERIOD":"95.593","GP_ID":"183184513","MEAN_MOTION":"15.06392030","TIME_SYSTEM":"UTC","CENTER_NAME":"EARTH","ECCENTRICITY":"0.00018540","CLASSIFICATION_TYPE":"U","COUNTRY_CODE":"US","TLE_LINE1":"1 45101U 20006BK  21233.44658159 -.00000908  00000-0 -42049-4 0  9994","EPOCH":"2021-08-21T10:43:04.649376","OBJECT_TYPE":"PAYLOAD","SITE":"AFETR","MEAN_MOTION_DDOT":"0.0000000000000","MEAN_ANOMALY":"305.2997","TLE_LINE2":"2 45101  53.0540 144.2268 0001854  54.8165 305.2997 15.06392030 86631","EPHEMERIS_TYPE":"0","OBJECT_ID":"2020-006BK","FILE":"3100831","APOAPSIS":"548.522","PERIAPSIS":"545.954","ARG_OF_PERICENTER":"54.8165","BSTAR":"-0.00004204900000","OBJECT_NAME":"STARLINK-1194","MEAN_ELEMENT_THEORY":"SGP4","DECAY_DATE":null,"LAUNCH_DATE":"2020-01-29","REV_AT_EPOCH":"8663","RCS_SIZE":"LARGE","MEAN_MOTION_DOT":"-0.00000908","ELEMENT_SET_NO":"999","INCLINATION":"53.0540","NORAD_CAT_ID":"45101"},{"COUNTRY_CODE":"US","TLE_LINE1":"1 45102U 20006BL  21233.46870505  .00000965  00000-0  83719-4 0  9998","EPOCH":"2021-08-21T11:14:56.116320","SITE":"AFETR","OBJECT_TYPE":"PAYLOAD","MEAN_MOTION_DDOT":"0.0000000000000","MEAN_ANOMALY":"297.7209","TLE_LINE2":"2 45102  53.0548 144.1385 0001828  62.3965 297.7209 15.06388522 86634","EPHEMERIS_TYPE":"0","OBJECT_ID":"2020-006BL","FILE":"3100831","APOAPSIS":"548.515","PERIAPSIS":"545.983","REF_FRAME":"TEME","SEMIMAJOR_AXIS":"6925.384","RA_OF_ASC_NODE":"144.1385","PERIOD":"95.593","GP_ID":"183185263","TIME_SYSTEM":"UTC","MEAN_MOTION":"15.06388522","ECCENTRICITY":"0.00018280","CENTER_NAME":"EARTH","CLASSIFICATION_TYPE":"U","REV_AT_EPOCH":"8663","RCS_SIZE":"LARGE","MEAN_MOTION_DOT":"0.00000965","ELEMENT_SET_NO":"999","INCLINATION":"53.0548","NORAD_CAT_ID":"45102","ARG_OF_PERICENTER":"62.3965","BSTAR":"0.00008371900000","OBJECT_NAME":"STARLINK-1195","MEAN_ELEMENT_THEORY":"SGP4","DECAY_DATE":null,"LAUNCH_DATE":"2020-01-29"},{"DECAY_DATE":null,"LAUNCH_DATE":"2020-01-29","ARG_OF_PERICENTER":"47.3996","MEAN_ELEMENT_THEORY":"SGP4","BSTAR":"-0.00001755300000","OBJECT_NAME":"STARLINK-1196","MEAN_MOTION_DOT":"-0.00000543","RCS_SIZE":"LARGE","INCLINATION":"53.0540","NORAD_CAT_ID":"45103","ELEMENT_SET_NO":"999","REV_AT_EPOCH":"8664","GP_ID":"183184011","CLASSIFICATION_TYPE":"U","MEAN_MOTION":"15.06399020","TIME_SYSTEM":"UTC","ECCENTRICITY":"0.00018840","CENTER_NAME":"EARTH","REF_FRAME":"TEME","SEMIMAJOR_AXIS":"6925.352","PERIOD":"95.592","RA_OF_ASC_NODE":"144.0296","TLE_LINE2":"2 45103  53.0540 144.0296 0001884  47.3996 312.7152 15.06399020 86647","EPHEMERIS_TYPE":"0","MEAN_ANOMALY":"312.7152","PERIAPSIS":"545.912","OBJECT_ID":"2020-006BM","FILE":"3100831","APOAPSIS":"548.521","EPOCH":"2021-08-21T11:52:04.514016","TLE_LINE1":"1 45103U 20006BM  21233.49449669 -.00000543  00000-0 -17553-4 0  9992","COUNTRY_CODE":"US","MEAN_MOTION_DDOT":"0.0000000000000","SITE":"AFETR","OBJECT_TYPE":"PAYLOAD"},{"ARG_OF_PERICENTER":"113.5767","MEAN_ELEMENT_THEORY":"SGP4","BSTAR":"-0.00003975900000","OBJECT_NAME":"STARLINK-1138","DECAY_DATE":null,"LAUNCH_DATE":"2020-02-17","REV_AT_EPOCH":"8439","MEAN_MOTION_DOT":"-0.00000873","RCS_SIZE":"LARGE","INCLINATION":"53.0544","NORAD_CAT_ID":"45178","ELEMENT_SET_NO":"999","REF_FRAME":"TEME","SEMIMAJOR_AXIS":"6925.354","PERIOD":"95.592","RA_OF_ASC_NODE":"304.0481","GP_ID":"183184771","CLASSIFICATION_TYPE":"U","TIME_SYSTEM":"UTC","MEAN_MOTION":"15.06398383","CENTER_NAME":"EARTH","ECCENTRICITY":"0.00007850","EPOCH":"2021-08-21T11:41:27.760704","TLE_LINE1":"1 45178U 20012A   21233.48712686 -.00000873  00000-0 -39759-4 0  9990","COUNTRY_CODE":"US","MEAN_MOTION_DDOT":"0.0000000000000","OBJECT_TYPE":"PAYLOAD","SITE":"AFETR","TLE_LINE2":"2 45178  53.0544 304.0481 0000785 113.5767 246.5304 15.06398383 84392","EPHEMERIS_TYPE":"0","MEAN_ANOMALY":"246.5304","PERIAPSIS":"546.675","OBJECT_ID":"2020-012A","FILE":"3100831","APOAPSIS":"547.762"},{"ARG_OF_PERICENTER":"120.4921","OBJECT_NAME":"STARLINK-1143","BSTAR":"-0.00004783400000","MEAN_ELEMENT_THEORY":"SGP4","DECAY_DATE":null,"LAUNCH_DATE":"2020-02-17","REV_AT_EPOCH":"8445","MEAN_MOTION_DOT":"-0.00000993","RCS_SIZE":"LARGE","ELEMENT_SET_NO":"999","INCLINATION":"53.0556","NORAD_CAT_ID":"45179","REF_FRAME":"TEME","SEMIMAJOR_AXIS":"6925.368","RA_OF_ASC_NODE":"304.0440","PERIOD":"95.593","GP_ID":"183183519","MEAN_MOTION":"15.06393535","TIME_SYSTEM":"UTC","CENTER_NAME":"EARTH","ECCENTRICITY":"0.00004670","CLASSIFICATION_TYPE":"U","COUNTRY_CODE":"US","EPOCH":"2021-08-21T11:46:46.002144","TLE_LINE1":"1 45179U 20012B   21233.49081021 -.00000993  00000-0 -47834-4 0  9990","SITE":"AFETR","OBJECT_TYPE":"PAYLOAD","MEAN_MOTION_DDOT":"0.0000000000000","MEAN_ANOMALY":"239.6114","TLE_LINE2":"2 45179  53.0556 304.0440 0000467 120.4921 239.6114 15.06393535 84450","EPHEMERIS_TYPE":"0","OBJECT_ID":"2020-012B","APOAPSIS":"547.557","FILE":"3100831","PERIAPSIS":"546.910"},{"LAUNCH_DATE":"2020-02-17","DECAY_DATE":null,"MEAN_ELEMENT_THEORY":"SGP4","OBJECT_NAME":"STARLINK-1192","BSTAR":"0.00006371200000","ARG_OF_PERICENTER":"112.0798","NORAD_CAT_ID":"45180","INCLINATION":"53.0536","ELEMENT_SET_NO":"999","MEAN_MOTION_DOT":"0.00000668","RCS_SIZE":"LARGE","REV_AT_EPOCH":"8446","CLASSIFICATION_TYPE":"U","ECCENTRICITY":"0.00006250","CENTER_NAME":"EARTH","MEAN_MOTION":"15.06396596","TIME_SYSTEM":"UTC","GP_ID":"183184269","PERIOD":"95.592","RA_OF_ASC_NODE":"303.7930","SEMIMAJOR_AXIS":"6925.359","REF_FRAME":"TEME","PERIAPSIS":"546.791","FILE":"3100831","APOAPSIS":"547.657","OBJECT_ID":"2020-012C","EPHEMERIS_TYPE":"0","TLE_LINE2":"2 45180  53.0536 303.7930 0000625 112.0798 248.0257 15.06396596 84468","MEAN_ANOMALY":"248.0257","MEAN_MOTION_DDOT":"0.0000000000000","OBJECT_TYPE":"PAYLOAD","SITE":"AFETR","TLE_LINE1":"1 45180U 20012C   21233.54610376  .00000668  00000-0  63712-4 0  9999","EPOCH":"2021-08-21T13:06:23.364864","COUNTRY_CODE":"US"},{"ECCENTRICITY":"0.00007640","CENTER_NAME":"EARTH","MEAN_MOTION":"15.06398224","TIME_SYSTEM":"UTC","CLASSIFICATION_TYPE":"U","GP_ID":"183184521","PERIOD":"95.592","RA_OF_ASC_NODE":"303.7989","SEMIMAJOR_AXIS":"6925.354","REF_FRAME":"TEME","APOAPSIS":"547.748","FILE":"3100831","OBJECT_ID":"2020-012D","PERIAPSIS":"546.690","MEAN_ANOMALY":"245.1079","EPHEMERIS_TYPE":"0","TLE_LINE2":"2 45181  53.0543 303.7989 0000764 114.9989 245.1079 15.06398224 84468","SITE":"AFETR","OBJECT_TYPE":"PAYLOAD","MEAN_MOTION_DDOT":"0.0000000000000","COUNTRY_CODE":"US","TLE_LINE1":"1 45181U 20012D   21233.54241976  .00000805  00000-0  72910-4 0  9999","EPOCH":"2021-08-21T13:01:05.067264","LAUNCH_DATE":"2020-02-17","DECAY_DATE":null,"BSTAR":"0.00007291000000","OBJECT_NAME":"STARLINK-1200","MEAN_ELEMENT_THEORY":"SGP4","ARG_OF_PERICENTER":"114.9989","ELEMENT_SET_NO":"999","NORAD_CAT_ID":"45181","INCLINATION":"53.0543","RCS_SIZE":"LARGE","MEAN_MOTION_DOT":"0.00000805","REV_AT_EPOCH":"8446"},{"REF_FRAME":"TEME","SEMIMAJOR_AXIS":"6925.350","PERIOD":"95.592","RA_OF_ASC_NODE":"284.0146","GP_ID":"183185271","CLASSIFICATION_TYPE":"U","TIME_SYSTEM":"UTC","MEAN_MOTION":"15.06399677","CENTER_NAME":"EARTH","ECCENTRICITY":"0.00005000","TLE_LINE1":"1 45182U 20012E   21233.49633961  .00000738  00000-0  68406-4 0  9993","EPOCH":"2021-08-21T11:54:43.742304","COUNTRY_CODE":"US","MEAN_MOTION_DDOT":"0.0000000000000","SITE":"AFETR","OBJECT_TYPE":"PAYLOAD","TLE_LINE2":"2 45182  53.0546 284.0146 0000500 113.3265 246.7777 15.06399677 84584","EPHEMERIS_TYPE":"0","MEAN_ANOMALY":"246.7777","PERIAPSIS":"546.868","OBJECT_ID":"2020-012E","FILE":"3100831","APOAPSIS":"547.561","ARG_OF_PERICENTER":"113.3265","MEAN_ELEMENT_THEORY":"SGP4","BSTAR":"0.00006840600000","OBJECT_NAME":"STARLINK-1201","DECAY_DATE":null,"LAUNCH_DATE":"2020-02-17","REV_AT_EPOCH":"8458","MEAN_MOTION_DOT":"0.00000738","RCS_SIZE":"LARGE","INCLINATION":"53.0546","NORAD_CAT_ID":"45182","ELEMENT_SET_NO":"999"}];
